OBJECT_NAME,OBJECT_ID,EPOCH,MEAN_MOTION,ECCENTRICITY,INCLINATION,RA_OF_ASC_NODE,ARG_OF_PERICENTER,MEAN_ANOMALY,EPHEMERIS_TYPE,CLASSIFICATION_TYPE,NORAD_CAT_ID,ELEMENT_SET_NO,REV_AT_EPOCH,BSTAR,MEAN_MOTION_DOT,MEAN_MOTION_DDOT
STARLINK-2589,2021-038U,2026-07-24T01:18:19.615680,15.31707077,.00013089,53.1592,73.3862,89.5180,270.5972,0,U,48371,999,28811,.68356356E-4,.1757E-4,0
STARLINK-2609,2021-038W,2026-07-23T08:24:25.263360,15.31705275,.0002338,53.1592,74.2471,77.6517,282.4746,0,U,48373,999,28804,-.23905E-4,-.1108E-4,0
STARLINK-2604,2021-038X,2026-07-23T15:21:00.269280,15.31695361,.00011321,53.1603,75.2033,86.9216,273.1915,0,U,48374,999,28805,-.2644425E-5,-.447E-5,0
STARLINK-2603,2021-038Y,2026-07-23T15:21:28.128096,15.31707790,.0001245,53.1599,75.2229,82.5532,277.5611,0,U,48375,999,28805,.43312536E-4,.979E-5,0
STARLINK-2610,2021-038Z,2026-07-24T02:09:46.996992,15.74090222,.00013078,53.1560,57.2736,199.9866,160.1102,0,U,48376,999,28834,.89805922E-3,.132412E-2,0
STARLINK-2499,2021-038AA,2026-07-23T23:04:05.600352,15.31699636,.00012365,53.1601,73.7845,71.2025,288.9110,0,U,48377,999,28810,-.2224234E-5,-.434E-5,0
STARLINK-2526,2021-038AB,2026-07-23T01:28:46.825248,15.31725052,.00012113,53.1597,78.1301,94.0176,266.0964,0,U,48378,999,28796,.8197523E-4,.2181E-4,0
STARLINK-2612,2021-038AC,2026-07-23T22:36:50.537376,15.31697411,.00037435,53.1591,71.7596,69.6710,290.4694,0,U,48379,999,28813,-.25029595E-4,-.1144E-4,0
STARLINK-2614,2021-038AD,2026-07-23T22:50:14.276832,15.31697769,.0001218,53.1593,71.5946,85.9871,274.1270,0,U,48380,999,28813,-.10157778E-4,-.68E-5,0
STARLINK-2630,2021-038AE,2026-07-24T01:31:50.795040,15.31700802,.00010968,53.1587,73.7976,95.6888,264.4238,0,U,48381,999,28811,-.49188182E-4,-.1891E-4,0
STARLINK-2585,2021-038AF,2026-07-21T01:43:26.918976,15.31703963,.00014524,53.1605,87.1646,89.8964,270.2204,0,U,48382,999,28766,.12252303E-3,.3439E-4,0
STARLINK-2598,2021-038AJ,2026-07-23T01:01:27.550272,15.31707729,.00015878,53.1601,75.6211,85.6650,274.4533,0,U,48385,999,28922,-.34100482E-4,-.1424E-4,0
STARLINK-2606,2021-038AK,2026-07-24T01:30:49.090752,15.31688838,.00007475,53.1595,70.9889,123.7958,236.3115,0,U,48386,999,28814,.36048047E-4,.754E-5,0
STARLINK-2594,2021-038AM,2026-07-23T08:23:54.630240,15.31708724,.0001587,53.1595,74.0955,84.9864,275.1318,0,U,48388,999,28804,-.24045E-4,-.1112E-4,0
STARLINK-2586,2021-038AP,2026-07-23T00:36:55.327968,15.31711928,.00011208,53.1608,62.9353,95.4793,264.6337,0,U,48390,999,28939,.55736164E-4,.1365E-4,0
STARLINK-2607,2021-038AQ,2026-07-23T15:22:26.477472,15.31690553,.00010813,53.1602,60.4241,90.9364,269.1762,0,U,48391,999,28948,-.46974244E-4,-.1822E-4,0
STARLINK-2605,2021-038AR,2026-07-22T21:02:07.196352,15.31722674,.00013134,53.1592,63.5247,86.9666,273.1486,0,U,48392,999,28937,.11741118E-3,.3282E-4,0
STARLINK-2574,2021-038AU,2026-07-23T14:36:17.021376,15.31693657,.0001434,53.1599,62.4719,78.3080,281.8083,0,U,48395,999,28945,-.49551E-4,-.1902E-4,0
STARLINK-2575,2021-038AV,2026-07-23T07:39:44.882208,15.31700618,.0001865,53.1553,61.4166,92.5118,267.6097,0,U,48396,999,28944,.15862E-3,.456E-4,0
STARLINK-2590,2021-038AW,2026-07-23T14:09:00.810144,15.31695531,.0001345,53.1602,60.2925,78.5696,281.5456,0,U,48397,999,28948,.51763E-5,-.205E-5,0
STARLINK-2588,2021-038AX,2026-07-23T22:55:23.918016,15.22491847,.000421,53.0579,75.5586,156.1952,203.9240,0,U,48398,999,28927,.12747129E-2,.29703E-3,0
STARLINK-2587,2021-038AY,2026-07-23T13:48:51.218784,15.31706152,.0000849,53.1588,60.2862,101.6256,258.4840,0,U,48399,999,28947,.24565E-4,.398E-5,0
STARLINK-2576,2021-038AZ,2026-07-23T00:16:48.562752,15.31723226,.00014034,53.1570,63.2031,113.7619,246.3529,0,U,48400,999,28817,.47564733E-4,.1112E-4,0
STARLINK-2571,2021-038BA,2026-07-24T06:55:17.928480,15.31701296,.00020626,53.1595,57.2902,81.7240,278.3996,0,U,48401,999,28836,.101538E-6,-.363E-5,0
STARLINK-2593,2021-038BD,2026-07-24T08:00:01.999872,15.31696129,.0001181,53.1579,56.8604,87.5219,158.9178,0,U,48404,999,587,.42877147E-3,.12962E-3,0
STARLINK-2570,2021-038BE,2026-07-23T23:26:07.257696,15.31695078,.00013937,53.1593,58.6976,82.4073,277.7087,0,U,48405,999,28831,-.6722339E-5,-.574E-5,0
STARLINK-2568,2021-038BF,2026-07-23T00:44:14.309952,15.31712970,.00010967,53.1597,66.0986,90.3349,269.7778,0,U,48406,999,28813,.38098532E-4,.818E-5,0
STARLINK-2592,2021-038BH,2026-07-23T08:13:23.003904,15.31712379,.000114,53.1606,61.9541,86.1357,273.9774,0,U,48408,999,28821,.17204E-4,.169E-5,0
STARLINK-2563,2021-038BK,2026-07-23T11:48:43.461216,15.31696089,.0002036,53.1616,24.6823,91.4594,268.6640,0,U,48410,999,28875,-.73358E-4,-.2641E-4,0
STARLINK-2505,2021-038BL,2026-07-23T20:50:51.858528,15.31706540,.00008915,53.1600,20.2043,101.6486,258.4616,0,U,48411,999,28884,.93688687E-4,.2544E-4,0
STARLINK-2581,2021-038BM,2026-07-22T22:16:35.434560,15.31727009,.00010022,53.1609,27.1885,78.0809,282.0305,0,U,48412,999,28866,.78489016E-4,.2073E-4,0
STARLINK-2461,2021-040A,2026-07-24T07:41:32.640288,15.31705202,.00011103,53.1577,262.9805,89.3250,270.7879,0,U,48428,999,28761,.25558106E-3,.7575E-4,0
STARLINK-2700,2021-040D,2026-07-24T07:45:37.314720,15.31696697,.00015306,53.1581,237.0409,82.1835,277.9340,0,U,48431,999,28796,.16037377E-3,.4614E-4,0
STARLINK-2680,2021-040E,2026-07-24T07:38:54.921408,15.31723272,.0001426,53.1572,237.1678,103.8391,256.2769,0,U,48432,999,28795,.24835367E-3,.7355E-4,0
STARLINK-2699,2021-040F,2026-07-24T06:31:45.341184,15.31694790,.00005714,53.1574,237.0897,80.8227,279.2839,0,U,48433,999,28795,.34187311E-4,.696E-5,0
STARLINK-2692,2021-040G,2026-07-24T07:39:21.898944,15.31722761,.00009671,53.1574,237.0338,73.3065,286.8043,0,U,48434,999,28797,-.30638558E-3,-.9867E-4,0
STARLINK-2633,2021-040H,2026-07-24T07:09:41.300352,15.31706211,.00011581,53.1587,249.6232,91.6790,268.4344,0,U,48435,999,28778,.1071027E-5,-.332E-5,0
STARLINK-2639,2021-040J,2026-07-24T06:33:50.508000,15.31708227,.00011185,53.1593,262.6176,66.6632,293.4487,0,U,48436,999,28760,.22154129E-4,.323E-5,0
STARLINK-2642,2021-040K,2026-07-24T05:18:11.735424,15.31711862,.000104,53.1578,275.7616,83.6042,276.5077,0,U,48437,999,28741,.36813112E-4,.778E-5,0
STARLINK-2640,2021-040L,2026-07-24T06:34:19.786368,15.31693849,.0000757,53.1599,262.6762,91.5093,268.5995,0,U,48438,999,28760,.48891504E-4,.1152E-4,0
STARLINK-2583,2021-040M,2026-07-24T03:46:34.735008,15.31701832,.00018125,53.1573,263.3966,98.8166,261.3041,0,U,48439,999,28758,.1326808E-5,-.324E-5,0
STARLINK-2682,2021-040N,2026-07-24T07:48:08.208000,15.31712373,.00010122,53.1577,262.3518,81.9271,278.1845,0,U,48440,999,28761,.46498615E-3,.14097E-3,0
STARLINK-2702,2021-040P,2026-07-23T14:41:18.681792,15.31694999,.00007585,53.1593,265.7598,72.6199,287.4886,0,U,48441,999,28750,-.19029419E-4,-.955E-5,0
STARLINK-2644,2021-040Q,2026-07-24T08:00:01.999872,15.56571690,.00016735,53.1579,255.5201,86.3518,192.5498,0,U,48442,999,592,.12249004E-1,.967492E-2,0
STARLINK-2663,2021-040R,2026-07-24T07:27:59.537664,15.31704596,.0001017,53.1580,262.3849,93.9975,266.1143,0,U,48443,999,28761,.14541721E-3,.4151E-4,0
STARLINK-2645,2021-040S,2026-07-24T07:34:43.321152,15.31704074,.00007924,53.1587,262.4527,75.2481,284.8608,0,U,48444,999,28761,.13314506E-3,.3769E-4,0
STARLINK-2634,2021-040T,2026-07-24T07:21:17.400960,15.31684508,.00011737,53.1576,262.4312,82.9863,277.1272,0,U,48445,999,28761,.24955901E-3,.7383E-4,0
STARLINK-2655,2021-040X,2026-07-24T03:59:56.413824,15.31762317,.00008568,53.1603,263.0972,48.6828,311.4248,0,U,48449,999,28759,-.3966996E-3,-.12678E-3,0
STARLINK-2703,2021-040AA,2026-07-24T05:27:11.676672,15.31702928,.00010065,53.1605,262.8114,79.3048,280.8067,0,U,48452,999,28760,-.52573453E-4,-.1996E-4,0
STARLINK-2620,2021-040AB,2026-07-24T03:39:49.042944,15.31697896,.00012277,53.1600,263.1328,77.3174,282.7964,0,U,48453,999,28759,-.1936332E-5,-.425E-5,0
STARLINK-2654,2021-040AC,2026-07-23T10:19:32.816352,15.31697025,.0001115,53.1588,266.4842,69.8317,290.2804,0,U,48454,999,28748,-.49508E-4,-.1901E-4,0
STARLINK-2497,2021-040AD,2026-07-24T07:14:37.400064,15.31709899,.00008714,53.1582,262.7211,82.8411,277.2689,0,U,48455,999,28760,.11211768E-4,-.17E-6,0
STARLINK-2698,2021-040AG,2026-07-24T07:15:11.170368,15.31699961,.00009706,53.1598,263.1002,73.5837,286.5271,0,U,48458,999,28832,.76745125E-4,.2017E-4,0
STARLINK-2579,2021-040AH,2026-07-24T04:53:39.123456,15.31687750,.00007897,53.1596,262.9522,77.2618,282.8472,0,U,48459,999,28761,.48127673E-4,.1128E-4,0
STARLINK-2582,2021-040AJ,2026-07-24T08:00:01.999872,15.95835765,.00043469,53.0396,172.0857,60.6396,9.3761,0,U,48460,999,603,.13291873E-2,.550503E-2,.13642956E-3
STARLINK-2683,2021-040AL,2026-07-24T05:38:21.363072,15.31731282,.00013027,53.1582,275.7188,91.9919,268.1232,0,U,48462,999,28742,.10640482E-2,.32831E-3,0
STARLINK-2686,2021-040AN,2026-07-24T04:38:27.342528,15.31695902,.00012018,53.1604,276.0301,83.8773,276.2366,0,U,48464,999,28741,-.11772801E-4,-.73E-5,0
STARLINK-2681,2021-040AP,2026-07-24T08:00:01.999872,15.80489422,.0008014,53.1366,250.4248,11.7687,98.3594,0,U,48465,999,600,.58070824E-3,.113625E-2,0
STARLINK-2687,2021-040AQ,2026-07-24T05:58:28.925760,15.31700170,.00012793,53.1606,275.6932,82.5425,277.5721,0,U,48466,999,28743,.907271E-6,-.337E-5,0
STARLINK-2659,2021-040AR,2026-07-24T04:44:38.007168,15.31702542,.00012354,53.1578,275.8121,67.2982,292.8150,0,U,48467,999,28742,.7912809E-5,-.12E-5,0
STARLINK-2685,2021-040AS,2026-07-24T06:45:30.472416,15.31611894,.00017815,53.1592,275.8001,73.2437,286.8760,0,U,48468,999,28743,.74249587E-3,.22682E-3,0
STARLINK-2661,2021-040AT,2026-07-24T06:38:45.644352,15.31702459,.00012414,53.1614,275.6347,64.4295,295.6835,0,U,48469,999,28743,.91309666E-4,.2469E-4,0
STARLINK-2675,2021-040AU,2026-07-24T06:11:53.764224,15.31701005,.00009834,53.1604,275.5817,92.3820,267.7294,0,U,48470,999,28742,.24466333E-3,.7235E-4,0
STARLINK-2684,2021-040AV,2026-07-24T04:31:14.810304,15.31692030,.00038347,53.1540,275.9132,100.1672,259.9762,0,U,48471,999,28741,.86219416E-3,.26482E-3,0
